STARLINK-5341           
1 55287U 23010U   23042.37204048  .00034987  00000+0  29124-3 0  9993
2 55287  70.0006   4.7029 0003332 272.8631  87.2184 15.69948272  4090
STARLINK-5311           
1 55288U 23010V   23042.37098260  .00011601  00000+0  97963-4 0  9996
2 55288  70.0002   4.7002 0003494 263.3924  96.6874 15.69961531  4405
STARLINK-5320           
1 55289U 23010W   23042.37150934  .00096912  00000+0  79664-3 0  9999
2 55289  69.9998   4.7018 0004100 273.7146  86.3581 15.69976294  4403
STARLINK-5266           
1 55290U 23010X   23042.37130123  .00053641  00000+0  44431-3 0  9995
2 55290  69.9998   4.7001 0003817 260.3076  99.7688 15.69961008  4408
STARLINK-5327           
1 55291U 23010Y   23042.37141074  .00035768  00000+0  29781-3 0  9994
2 55291  70.0005   4.6995 0003204 272.7514  87.3315 15.69937482  4405
STARLINK-5325           
1 55292U 23010Z   23042.37088566  .00056854  00000+0  47089-3 0  9991
2 55292  70.0009   4.7011 0003229 253.2465 106.8377 15.69950879  4406
STARLINK-5287           
1 55293U 23010AA  23042.37109702  .00089280  00000+0  73539-3 0  9996
2 55293  70.0004   4.7010 0003555 257.0298 103.0501 15.69956321  4405
STARLINK-5286           
1 55294U 23010AB  23042.37214254  .00065995  00000+0  54528-3 0  9990
2 55294  70.0003   4.7045 0004060 264.5536  95.5196 15.69966580  4406
STARLINK-5293           
1 55295U 23010AC  23042.37363510  .00090534  00000+0  74654-3 0  9990
2 55295  70.0006   4.7103 0003884 250.5131 109.5645 15.69924043  4092
STARLINK-5285           
1 55296U 23010AD  23042.37046110  .00024503  00000+0  20485-3 0  9991
2 55296  70.0002   4.6976 0003298 256.6305 103.4523 15.69936711  5280
STARLINK-5284           
1 55297U 23010AE  23042.37077423  .00038539  00000+0  32038-3 0  9994
2 55297  70.0006   4.6994 0003599 261.2034  98.8754 15.69955265  4401
STARLINK-5272           
1 55298U 23010AF  23042.37035712  .00034907  00000+0  29070-3 0  9997
2 55298  70.0005   4.6972 0002729 254.3587 105.7308 15.69940278  5285
STARLINK-5270           
1 55299U 23010AG  23042.37066684  .00064175  00000+0  53068-3 0  9994
2 55299  70.0005   4.6990 0003602 267.3398  92.7386 15.69956530  5280
STARLINK-5308           
1 55300U 23010AH  23042.37024528  .00024602  00000+0  20555-3 0  9994
2 55300  70.0005   4.6967 0003585 272.1179  87.9606 15.69949061  4403
