[
  {
    "OBJECT_NAME": "STARLINK-5341",
    "OBJECT_ID": "2023-010U",
    "EPOCH": "2023-02-11T08:55:44.297472",
    "MEAN_MOTION": 15.69948272,
    "ECCENTRICITY": 0.0003332,
    "INCLINATION": 70.0006,
    "RA_OF_ASC_NODE": 4.7029,
    "ARG_OF_PERICENTER": 272.8631,
    "MEAN_ANOMALY": 87.2184,
    "EPHEMERIS_TYPE": 0,
    "CLASSIFICATION_TYPE": "U",
    "NORAD_CAT_ID": 55287,
    "ELEMENT_SET_NO": 999,
    "REV_AT_EPOCH": 409,
    "BSTAR": 0.00029124,
    "MEAN_MOTION_DOT": 0.00034987,
    "MEAN_MOTION_DDOT": 0
  },
  {
    "OBJECT_NAME": "STARLINK-5311",
    "OBJECT_ID": "2023-010V",
    "EPOCH": "2023-02-11T08:54:12.896640",
    "MEAN_MOTION": 15.69961531,
    "ECCENTRICITY": 0.0003494,
    "INCLINATION": 70.0002,
    "RA_OF_ASC_NODE": 4.7002,
    "ARG_OF_PERICENTER": 263.3924,
    "MEAN_ANOMALY": 96.6874,
    "EPHEMERIS_TYPE": 0,
    "CLASSIFICATION_TYPE": "U",
    "NORAD_CAT_ID": 55288,
    "ELEMENT_SET_NO": 999,
    "REV_AT_EPOCH": 440,
    "BSTAR": 9.7963e-5,
    "MEAN_MOTION_DOT": 0.00011601,
    "MEAN_MOTION_DDOT": 0
  },
  {
    "OBJECT_NAME": "STARLINK-5320",
    "OBJECT_ID": "2023-010W",
    "EPOCH": "2023-02-11T08:54:58.406976",
    "MEAN_MOTION": 15.69976294,
    "ECCENTRICITY": 0.00041,
    "INCLINATION": 69.9998,
    "RA_OF_ASC_NODE": 4.7018,
    "ARG_OF_PERICENTER": 273.7146,
    "MEAN_ANOMALY": 86.3581,
    "EPHEMERIS_TYPE": 0,
    "CLASSIFICATION_TYPE": "U",
    "NORAD_CAT_ID": 55289,
    "ELEMENT_SET_NO": 999,
    "REV_AT_EPOCH": 440,
    "BSTAR": 0.00079664,
    "MEAN_MOTION_DOT": 0.00096912,
    "MEAN_MOTION_DDOT": 0
  },
  {
    "OBJECT_NAME": "STARLINK-5266",
    "OBJECT_ID": "2023-010X",
    "EPOCH": "2023-02-11T08:54:40.426272",
    "MEAN_MOTION": 15.69961008,
    "ECCENTRICITY": 0.0003817,
    "INCLINATION": 69.9998,
    "RA_OF_ASC_NODE": 4.7001,
    "ARG_OF_PERICENTER": 260.3076,
    "MEAN_ANOMALY": 99.7688,
    "EPHEMERIS_TYPE": 0,
    "CLASSIFICATION_TYPE": "U",
    "NORAD_CAT_ID": 55290,
    "ELEMENT_SET_NO": 999,
    "REV_AT_EPOCH": 440,
    "BSTAR": 0.00044431,
    "MEAN_MOTION_DOT": 0.00053641,
    "MEAN_MOTION_DDOT": 0
  },
  {
    "OBJECT_NAME": "STARLINK-5327",
    "OBJECT_ID": "2023-010Y",
    "EPOCH": "2023-02-11T08:54:49.887936",
    "MEAN_MOTION": 15.69937482,
    "ECCENTRICITY": 0.0003204,
    "INCLINATION": 70.0005,
    "RA_OF_ASC_NODE": 4.6995,
    "ARG_OF_PERICENTER": 272.7514,
    "MEAN_ANOMALY": 87.3315,
    "EPHEMERIS_TYPE": 0,
    "CLASSIFICATION_TYPE": "U",
    "NORAD_CAT_ID": 55291,
    "ELEMENT_SET_NO": 999,
    "REV_AT_EPOCH": 440,
    "BSTAR": 0.00029781,
    "MEAN_MOTION_DOT": 0.00035768,
    "MEAN_MOTION_DDOT": 0
  },
  {
    "OBJECT_NAME": "STARLINK-5325",
    "OBJECT_ID": "2023-010Z",
    "EPOCH": "2023-02-11T08:54:04.521024",
    "MEAN_MOTION": 15.69950879,
    "ECCENTRICITY": 0.0003229,
    "INCLINATION": 70.0009,
    "RA_OF_ASC_NODE": 4.7011,
    "ARG_OF_PERICENTER": 253.2465,
    "MEAN_ANOMALY": 106.8377,
    "EPHEMERIS_TYPE": 0,
    "CLASSIFICATION_TYPE": "U",
    "NORAD_CAT_ID": 55292,
    "ELEMENT_SET_NO": 999,
    "REV_AT_EPOCH": 440,
    "BSTAR": 0.00047089,
    "MEAN_MOTION_DOT": 0.00056854,
    "MEAN_MOTION_DDOT": 0
  },
  {
    "OBJECT_NAME": "STARLINK-5287",
    "OBJECT_ID": "2023-010AA",
    "EPOCH": "2023-02-11T08:54:22.782528",
    "MEAN_MOTION": 15.69956321,
    "ECCENTRICITY": 0.0003555,
    "INCLINATION": 70.0004,
    "RA_OF_ASC_NODE": 4.701,
    "ARG_OF_PERICENTER": 257.0298,
    "MEAN_ANOMALY": 103.0501,
    "EPHEMERIS_TYPE": 0,
    "CLASSIFICATION_TYPE": "U",
    "NORAD_CAT_ID": 55293,
    "ELEMENT_SET_NO": 999,
    "REV_AT_EPOCH": 440,
    "BSTAR": 0.00073539,
    "MEAN_MOTION_DOT": 0.0008928,
    "MEAN_MOTION_DDOT": 0
  },
  {
    "OBJECT_NAME": "STARLINK-5286",
    "OBJECT_ID": "2023-010AB",
    "EPOCH": "2023-02-11T08:55:53.115456",
    "MEAN_MOTION": 15.6996658,
    "ECCENTRICITY": 0.000406,
    "INCLINATION": 70.0003,
    "RA_OF_ASC_NODE": 4.7045,
    "ARG_OF_PERICENTER": 264.5536,
    "MEAN_ANOMALY": 95.5196,
    "EPHEMERIS_TYPE": 0,
    "CLASSIFICATION_TYPE": "U",
    "NORAD_CAT_ID": 55294,
    "ELEMENT_SET_NO": 999,
    "REV_AT_EPOCH": 440,
    "BSTAR": 0.00054528,
    "MEAN_MOTION_DOT": 0.00065995,
    "MEAN_MOTION_DDOT": 0
  },
  {
    "OBJECT_NAME": "STARLINK-5293",
    "OBJECT_ID": "2023-010AC",
    "EPOCH": "2023-02-11T08:58:02.072640",
    "MEAN_MOTION": 15.69924043,
    "ECCENTRICITY": 0.0003884,
    "INCLINATION": 70.0006,
    "RA_OF_ASC_NODE": 4.7103,
    "ARG_OF_PERICENTER": 250.5131,
    "MEAN_ANOMALY": 109.5645,
    "EPHEMERIS_TYPE": 0,
    "CLASSIFICATION_TYPE": "U",
    "NORAD_CAT_ID": 55295,
    "ELEMENT_SET_NO": 999,
    "REV_AT_EPOCH": 409,
    "BSTAR": 0.00074654,
    "MEAN_MOTION_DOT": 0.00090534,
    "MEAN_MOTION_DDOT": 0
  },
  {
    "OBJECT_NAME": "STARLINK-5285",
    "OBJECT_ID": "2023-010AD",
    "EPOCH": "2023-02-11T08:53:27.839040",
    "MEAN_MOTION": 15.69936711,
    "ECCENTRICITY": 0.0003298,
    "INCLINATION": 70.0002,
    "RA_OF_ASC_NODE": 4.6976,
    "ARG_OF_PERICENTER": 256.6305,
    "MEAN_ANOMALY": 103.4523,
    "EPHEMERIS_TYPE": 0,
    "CLASSIFICATION_TYPE": "U",
    "NORAD_CAT_ID": 55296,
    "ELEMENT_SET_NO": 999,
    "REV_AT_EPOCH": 528,
    "BSTAR": 0.00020485,
    "MEAN_MOTION_DOT": 0.00024503,
    "MEAN_MOTION_DDOT": 0
  },
  {
    "OBJECT_NAME": "STARLINK-5284",
    "OBJECT_ID": "2023-010AE",
    "EPOCH": "2023-02-11T08:53:54.893472",
    "MEAN_MOTION": 15.69955265,
    "ECCENTRICITY": 0.0003599,
    "INCLINATION": 70.0006,
    "RA_OF_ASC_NODE": 4.6994,
    "ARG_OF_PERICENTER": 261.2034,
    "MEAN_ANOMALY": 98.8754,
    "EPHEMERIS_TYPE": 0,
    "CLASSIFICATION_TYPE": "U",
    "NORAD_CAT_ID": 55297,
    "ELEMENT_SET_NO": 999,
    "REV_AT_EPOCH": 440,
    "BSTAR": 0.00032038,
    "MEAN_MOTION_DOT": 0.00038539,
    "MEAN_MOTION_DDOT": 0
  },
  {
    "OBJECT_NAME": "STARLINK-5272",
    "OBJECT_ID": "2023-010AF",
    "EPOCH": "2023-02-11T08:53:18.855168",
    "MEAN_MOTION": 15.69940278,
    "ECCENTRICITY": 0.0002729,
    "INCLINATION": 70.0005,
    "RA_OF_ASC_NODE": 4.6972,
    "ARG_OF_PERICENTER": 254.3587,
    "MEAN_ANOMALY": 105.7308,
    "EPHEMERIS_TYPE": 0,
    "CLASSIFICATION_TYPE": "U",
    "NORAD_CAT_ID": 55298,
    "ELEMENT_SET_NO": 999,
    "REV_AT_EPOCH": 528,
    "BSTAR": 0.0002907,
    "MEAN_MOTION_DOT": 0.00034907,
    "MEAN_MOTION_DDOT": 0
  },
  {
    "OBJECT_NAME": "STARLINK-5270",
    "OBJECT_ID": "2023-010AG",
    "EPOCH": "2023-02-11T08:53:45.614976",
    "MEAN_MOTION": 15.6995653,
    "ECCENTRICITY": 0.0003602,
    "INCLINATION": 70.0005,
    "RA_OF_ASC_NODE": 4.699,
    "ARG_OF_PERICENTER": 267.3398,
    "MEAN_ANOMALY": 92.7386,
    "EPHEMERIS_TYPE": 0,
    "CLASSIFICATION_TYPE": "U",
    "NORAD_CAT_ID": 55299,
    "ELEMENT_SET_NO": 999,
    "REV_AT_EPOCH": 528,
    "BSTAR": 0.00053068,
    "MEAN_MOTION_DOT": 0.00064175,
    "MEAN_MOTION_DDOT": 0
  },
  {
    "OBJECT_NAME": "STARLINK-5308",
    "OBJECT_ID": "2023-010AH",
    "EPOCH": "2023-02-11T08:53:09.192192",
    "MEAN_MOTION": 15.69949061,
    "ECCENTRICITY": 0.0003585,
    "INCLINATION": 70.0005,
    "RA_OF_ASC_NODE": 4.6967,
    "ARG_OF_PERICENTER": 272.1179,
    "MEAN_ANOMALY": 87.9606,
    "EPHEMERIS_TYPE": 0,
    "CLASSIFICATION_TYPE": "U",
    "NORAD_CAT_ID": 55300,
    "ELEMENT_SET_NO": 999,
    "REV_AT_EPOCH": 440,
    "BSTAR": 0.00020555,
    "MEAN_MOTION_DOT": 0.00024602,
    "MEAN_MOTION_DDOT": 0
  }
]
